start=new Date('2022-08-18T00:00:00.000Z').valueOf();
sats=[{"RA_OF_ASC_NODE":"125.1345","RCS_SIZE":"LARGE","MEAN_ELEMENT_THEORY":"SGP4","DECAY_DATE":null,"PERIAPSIS":"538.457","ARG_OF_PERICENTER":"57.6036","PERIOD":"95.438","TLE_LINE1":"1 52501U 22049BC  22229.66667824  .00009673  00000-0  62501-3 0  9994","MEAN_ANOMALY":"31.7011","REV_AT_EPOCH":"130","FILE":"3538809","BSTAR":"0.00062501000000","OBJECT_NAME":"STARLINK-3907","REF_FRAME":"TEME","NORAD_CAT_ID":"52501","ECCENTRICITY":"0.00018640","INCLINATION":"53.2191","GP_ID":"210409246","MEAN_MOTION_DOT":"0.00009673","OBJECT_ID":"2022-049BC","EPOCH":"2022-08-17T16:00:00.999936","TLE_LINE2":"2 52501  53.2191 125.1345 0001864  57.6036  31.7011 15.08839685  1303","ELEMENT_SET_NO":"999","CLASSIFICATION_TYPE":"U","EPHEMERIS_TYPE":"0","CENTER_NAME":"EARTH","COUNTRY_CODE":"US","SITE":"AFETR","APOAPSIS":"541.036","TIME_SYSTEM":"UTC","OBJECT_TYPE":"PAYLOAD","SEMIMAJOR_AXIS":"6917.881","MEAN_MOTION":"15.08839685","MEAN_MOTION_DDOT":"0.0000000000000","LAUNCH_DATE":"2022-05-06"},{"MEAN_MOTION":"15.43594241","SEMIMAJOR_AXIS":"6813.649","LAUNCH_DATE":"2022-05-06","MEAN_MOTION_DDOT":"0.0000000000000","EPHEMERIS_TYPE":"0","CENTER_NAME":"EARTH","TLE_LINE2":"2 52502  53.2175 117.0503 0001177  65.1478 303.8013 15.43594241  1303","EPOCH":"2022-08-17T16:00:00.999936","ELEMENT_SET_NO":"999","CLASSIFICATION_TYPE":"U","TIME_SYSTEM":"UTC","APOAPSIS":"436.316","OBJECT_TYPE":"PAYLOAD","COUNTRY_CODE":"US","SITE":"AFETR","REF_FRAME":"TEME","NORAD_CAT_ID":"52502","BSTAR":"-0.02543300000000","OBJECT_NAME":"STARLINK-3912","INCLINATION":"53.2175","GP_ID":"210408838","OBJECT_ID":"2022-049BD","MEAN_MOTION_DOT":"-0.01053308","ECCENTRICITY":"0.00011770","DECAY_DATE":null,"RA_OF_ASC_NODE":"117.0503","RCS_SIZE":"LARGE","MEAN_ELEMENT_THEORY":"SGP4","REV_AT_EPOCH":"130","FILE":"3538809","PERIAPSIS":"434.712","ARG_OF_PERICENTER":"65.1478","PERIOD":"93.289","TLE_LINE1":"1 52502U 22049BD  22229.66667824 -.01053308  00000-0 -25433-1 0  9993","MEAN_ANOMALY":"303.8013"},{"MEAN_ANOMALY":"296.9811","TLE_LINE1":"1 52503U 22049BE  22229.66667824 -.01044250  00000-0 -25383-1 0  9994","PERIOD":"93.302","PERIAPSIS":"435.444","ARG_OF_PERICENTER":"68.9313","FILE":"3538809","REV_AT_EPOCH":"130","MEAN_ELEMENT_THEORY":"SGP4","RCS_SIZE":"LARGE","RA_OF_ASC_NODE":"117.0436","DECAY_DATE":null,"ECCENTRICITY":"0.00010550","MEAN_MOTION_DOT":"-0.01044250","OBJECT_ID":"2022-049BE","GP_ID":"210408702","INCLINATION":"53.2165","OBJECT_NAME":"STARLINK-3861","BSTAR":"-0.02538300000000","NORAD_CAT_ID":"52503","REF_FRAME":"TEME","SITE":"AFETR","COUNTRY_CODE":"US","OBJECT_TYPE":"PAYLOAD","TIME_SYSTEM":"UTC","APOAPSIS":"436.882","ELEMENT_SET_NO":"999","CLASSIFICATION_TYPE":"U","EPOCH":"2022-08-17T16:00:00.999936","TLE_LINE2":"2 52503  53.2165 117.0436 0001055  68.9313 296.9811 15.43373672  1303","EPHEMERIS_TYPE":"0","CENTER_NAME":"EARTH","MEAN_MOTION_DDOT":"0.0000000000000","LAUNCH_DATE":"2022-05-06","SEMIMAJOR_AXIS":"6814.298","MEAN_MOTION":"15.43373672"},{"REV_AT_EPOCH":"130","FILE":"3538809","MEAN_ANOMALY":"242.5411","PERIAPSIS":"537.584","PERIOD":"95.437","ARG_OF_PERICENTER":"46.7735","TLE_LINE1":"1 52533U 22051A   22229.66667824 -.00044225  00000-0 -27767-2 0  9990","DECAY_DATE":null,"RCS_SIZE":"LARGE","MEAN_ELEMENT_THEORY":"SGP4","RA_OF_ASC_NODE":"205.1605","OBJECT_ID":"2022-051A","MEAN_MOTION_DOT":"-0.00044225","INCLINATION":"53.2178","GP_ID":"210408704","ECCENTRICITY":"0.00030830","NORAD_CAT_ID":"52533","REF_FRAME":"TEME","BSTAR":"-0.00277670000000","OBJECT_NAME":"STARLINK-3951","OBJECT_TYPE":"PAYLOAD","APOAPSIS":"541.849","TIME_SYSTEM":"UTC","SITE":"AFWTR","COUNTRY_CODE":"US","CENTER_NAME":"EARTH","EPHEMERIS_TYPE":"0","CLASSIFICATION_TYPE":"U","ELEMENT_SET_NO":"999","EPOCH":"2022-08-17T16:00:00.999936","TLE_LINE2":"2 52533  53.2178 205.1605 0003083  46.7735 242.5411 15.08849518  1303","LAUNCH_DATE":"2022-05-13","MEAN_MOTION_DDOT":"0.0000000000000","MEAN_MOTION":"15.08849518","SEMIMAJOR_AXIS":"6917.851"},{"CLASSIFICATION_TYPE":"U","ELEMENT_SET_NO":"999","EPOCH":"2022-08-17T16:00:00.999936","TLE_LINE2":"2 52534  53.2178 205.1608 0002384  48.0179 206.4858 15.08857568  1305","EPHEMERIS_TYPE":"0","CENTER_NAME":"EARTH","SITE":"AFWTR","COUNTRY_CODE":"US","OBJECT_TYPE":"PAYLOAD","TIME_SYSTEM":"UTC","APOAPSIS":"541.341","SEMIMAJOR_AXIS":"6917.827","MEAN_MOTION":"15.08857568","MEAN_MOTION_DDOT":"0.0000000000000","LAUNCH_DATE":"2022-05-13","MEAN_ELEMENT_THEORY":"SGP4","RCS_SIZE":"LARGE","RA_OF_ASC_NODE":"205.1608","DECAY_DATE":null,"MEAN_ANOMALY":"206.4858","TLE_LINE1":"1 52534U 22051B   22229.66667824 -.00022811  00000-0 -14189-2 0  9992","PERIAPSIS":"538.042","ARG_OF_PERICENTER":"48.0179","PERIOD":"95.436","FILE":"3538809","REV_AT_EPOCH":"130","OBJECT_NAME":"STARLINK-3952","BSTAR":"-0.00141890000000","NORAD_CAT_ID":"52534","REF_FRAME":"TEME","ECCENTRICITY":"0.00023840","OBJECT_ID":"2022-051B","MEAN_MOTION_DOT":"-0.00022811","INCLINATION":"53.2178","GP_ID":"210408568"},{"ELEMENT_SET_NO":"999","CLASSIFICATION_TYPE":"U","EPOCH":"2022-08-17T16:00:00.999936","TLE_LINE2":"2 52535  53.2162 205.1575 0002543  45.8507 228.6865 15.08850987  1301","CENTER_NAME":"EARTH","EPHEMERIS_TYPE":"0","SITE":"AFWTR","COUNTRY_CODE":"US","OBJECT_TYPE":"PAYLOAD","APOAPSIS":"541.471","TIME_SYSTEM":"UTC","SEMIMAJOR_AXIS":"6917.847","MEAN_MOTION":"15.08850987","MEAN_MOTION_DDOT":"0.0000000000000","LAUNCH_DATE":"2022-05-13","RCS_SIZE":"LARGE","MEAN_ELEMENT_THEORY":"SGP4","RA_OF_ASC_NODE":"205.1575","DECAY_DATE":null,"MEAN_ANOMALY":"228.6865","ARG_OF_PERICENTER":"45.8507","PERIAPSIS":"537.953","PERIOD":"95.437","TLE_LINE1":"1 52535U 22051C   22229.66667824 -.00047005  00000-0 -29536-2 0  9997","REV_AT_EPOCH":"130","FILE":"3538809","BSTAR":"-0.00295360000000","OBJECT_NAME":"STARLINK-3958","NORAD_CAT_ID":"52535","REF_FRAME":"TEME","ECCENTRICITY":"0.00025430","OBJECT_ID":"2022-051C","MEAN_MOTION_DOT":"-0.00047005","INCLINATION":"53.2162","GP_ID":"210409385"},{"RA_OF_ASC_NODE":"205.1571","RCS_SIZE":"LARGE","MEAN_ELEMENT_THEORY":"SGP4","DECAY_DATE":null,"PERIAPSIS":"538.122","PERIOD":"95.438","ARG_OF_PERICENTER":"50.8721","TLE_LINE1":"1 52536U 22051D   22229.66667824 -.00028697  00000-0 -17920-2 0  9998","MEAN_ANOMALY":"243.6552","REV_AT_EPOCH":"130","FILE":"3538809","BSTAR":"-0.00179200000000","OBJECT_NAME":"STARLINK-3964","REF_FRAME":"TEME","NORAD_CAT_ID":"52536","ECCENTRICITY":"0.00023440","INCLINATION":"53.2166","GP_ID":"210408432","MEAN_MOTION_DOT":"-0.00028697","OBJECT_ID":"2022-051D","TLE_LINE2":"2 52536  53.2166 205.1571 0002344  50.8721 243.6552 15.08840572  1304","EPOCH":"2022-08-17T16:00:00.999936","CLASSIFICATION_TYPE":"U","ELEMENT_SET_NO":"999","CENTER_NAME":"EARTH","EPHEMERIS_TYPE":"0","COUNTRY_CODE":"US","SITE":"AFWTR","TIME_SYSTEM":"UTC","APOAPSIS":"541.365","OBJECT_TYPE":"PAYLOAD","SEMIMAJOR_AXIS":"6917.879","MEAN_MOTION":"15.08840572","MEAN_MOTION_DDOT":"0.0000000000000","LAUNCH_DATE":"2022-05-13"},{"RCS_SIZE":"LARGE","MEAN_ELEMENT_THEORY":"SGP4","RA_OF_ASC_NODE":"205.1593","DECAY_DATE":null,"MEAN_ANOMALY":"263.5666","PERIAPSIS":"537.865","ARG_OF_PERICENTER":"50.9385","PERIOD":"95.436","TLE_LINE1":"1 52537U 22051E   22229.66667824 -.00023502  00000-0 -14625-2 0  9998","REV_AT_EPOCH":"130","FILE":"3538809","BSTAR":"-0.00146250000000","OBJECT_NAME":"STARLINK-3897","NORAD_CAT_ID":"52537","REF_FRAME":"TEME","ECCENTRICITY":"0.00026390","OBJECT_ID":"2022-051E","MEAN_MOTION_DOT":"-0.00023502","GP_ID":"210409113","INCLINATION":"53.2171","CLASSIFICATION_TYPE":"U","ELEMENT_SET_NO":"999","TLE_LINE2":"2 52537  53.2171 205.1593 0002639  50.9385 263.5666 15.08857865  1309","EPOCH":"2022-08-17T16:00:00.999936","EPHEMERIS_TYPE":"0","CENTER_NAME":"EARTH","SITE":"AFWTR","COUNTRY_CODE":"US","OBJECT_TYPE":"PAYLOAD","APOAPSIS":"541.516","TIME_SYSTEM":"UTC","SEMIMAJOR_AXIS":"6917.826","MEAN_MOTION":"15.08857865","MEAN_MOTION_DDOT":"0.0000000000000","LAUNCH_DATE":"2022-05-13"},{"OBJECT_TYPE":"PAYLOAD","APOAPSIS":"541.279","TIME_SYSTEM":"UTC","SITE":"AFWTR","COUNTRY_CODE":"US","EPHEMERIS_TYPE":"0","CENTER_NAME":"EARTH","CLASSIFICATION_TYPE":"U","ELEMENT_SET_NO":"999","EPOCH":"2022-08-17T16:00:00.999936","TLE_LINE2":"2 52538  53.2167 205.1525 0002233  53.6909 300.8265 15.08843485  1305","LAUNCH_DATE":"2022-05-13","MEAN_MOTION_DDOT":"0.0000000000000","MEAN_MOTION":"15.08843485","SEMIMAJOR_AXIS":"6917.870","FILE":"3538809","REV_AT_EPOCH":"130","MEAN_ANOMALY":"300.8265","TLE_LINE1":"1 52538U 22051F   22229.66667824 -.00009465  00000-0 -57727-3 0  9992","ARG_OF_PERICENTER":"53.6909","PERIAPSIS":"538.190","PERIOD":"95.437","DECAY_DATE":null,"MEAN_ELEMENT_THEORY":"SGP4","RCS_SIZE":"LARGE","RA_OF_ASC_NODE":"205.1525","MEAN_MOTION_DOT":"-0.00009465","OBJECT_ID":"2022-051F","INCLINATION":"53.2167","GP_ID":"210408977","ECCENTRICITY":"0.00022330","NORAD_CAT_ID":"52538","REF_FRAME":"TEME","OBJECT_NAME":"STARLINK-3933","BSTAR":"-0.00057727000000"},{"LAUNCH_DATE":"2022-05-13","MEAN_MOTION_DDOT":"0.0000000000000","MEAN_MOTION":"15.08838756","SEMIMAJOR_AXIS":"6917.884","OBJECT_TYPE":"PAYLOAD","TIME_SYSTEM":"UTC","APOAPSIS":"541.483","SITE":"AFWTR","COUNTRY_CODE":"US","EPHEMERIS_TYPE":"0","CENTER_NAME":"EARTH","CLASSIFICATION_TYPE":"U","ELEMENT_SET_NO":"999","TLE_LINE2":"2 52539  53.2174 205.1607 0002506  47.8537 286.6600 15.08838756  1309","EPOCH":"2022-08-17T16:00:00.999936","OBJECT_ID":"2022-051G","MEAN_MOTION_DOT":"-0.00013109","GP_ID":"210409249","INCLINATION":"53.2174","ECCENTRICITY":"0.00025060","NORAD_CAT_ID":"52539","REF_FRAME":"TEME","BSTAR":"-0.00080698000000","OBJECT_NAME":"STARLINK-3757","REV_AT_EPOCH":"130","FILE":"3538809","MEAN_ANOMALY":"286.6600","ARG_OF_PERICENTER":"47.8537","PERIAPSIS":"538.016","PERIOD":"95.438","TLE_LINE1":"1 52539U 22051G   22229.66667824 -.00013109  00000-0 -80698-3 0  9996","DECAY_DATE":null,"RCS_SIZE":"LARGE","MEAN_ELEMENT_THEORY":"SGP4","RA_OF_ASC_NODE":"205.1607"}];
